0 THORAD AGENA D DEB
1 04743U 70025CS  13281.79731469  .00000143  00000-0  27092-3 0  6294
2 04743 099.8878 215.8540 0034072 307.2719 106.6801 13.55675817145032
0 THORAD AGENA D DEB
1 04743U 70025CS  13287.41773411  .00000218  00000-0  37772-3 0  6314
2 04743 099.8889 221.4855 0033795 293.1766 176.9027 13.55679471145795
0 THORAD AGENA D DEB
1 04743U 70025CS  13289.77007584  .00000228  00000-0  39184-3 0  6327
2 04743 099.8893 223.8426 0033691 287.2319 137.4721 13.55680730146113
0 THORAD AGENA D DEB
1 04743U 70025CS  13292.05775674  .00000222  00000-0  38278-3 0  6332
2 04743 099.8895 226.1352 0033593 281.4180 142.5080 13.55681651146424
0 THORAD AGENA D DEB
1 04743U 70025CS  13294.42904896  .00000264  00000-0  44358-3 0  6348
2 04743 099.8895 228.5118 0033476 275.4141 195.5984 13.55683618146741
